CCSDS_OMM_VERS = 2.0
CREATION_DATE  = 
ORIGINATOR     = 

OBJECT_NAME    = 2025-274B
OBJECT_ID      = 2025-274B
CENTER_NAME    = EARTH
REF_FRAME      = TEME
TIME_SYSTEM    = UTC
MEAN_ELEMENT_THEORY = SGP/SGP4

EPOCH          = 2025-12-24T06:54:47.078496
MEAN_MOTION    = 14.91878349
ECCENTRICITY   = .00112489
INCLINATION    = 97.7402
RA_OF_ASC_NODE = 285.2676
ARG_OF_PERICENTER = 206.9897
MEAN_ANOMALY   = 153.0738

EPHEMERIS_TYPE = 0
CLASSIFICATION_TYPE = U
NORAD_CAT_ID   = 66651
ELEMENT_SET_NO = 999
REV_AT_EPOCH   = 412
BSTAR          = .45801136E-3
MEAN_MOTION_DOT = .4579E-4
MEAN_MOTION_DDOT = 0

CCSDS_OMM_VERS = 2.0
CREATION_DATE  = 
ORIGINATOR     = 

OBJECT_NAME    = 2025-274C
OBJECT_ID      = 2025-274C
CENTER_NAME    = EARTH
REF_FRAME      = TEME
TIME_SYSTEM    = UTC
MEAN_ELEMENT_THEORY = SGP/SGP4

EPOCH          = 2025-12-23T14:45:53.477856
MEAN_MOTION    = 14.91960147
ECCENTRICITY   = .00107697
INCLINATION    = 97.7406
RA_OF_ASC_NODE = 284.6132
ARG_OF_PERICENTER = 216.5181
MEAN_ANOMALY   = 143.5304

EPHEMERIS_TYPE = 0
CLASSIFICATION_TYPE = U
NORAD_CAT_ID   = 66652
ELEMENT_SET_NO = 999
REV_AT_EPOCH   = 402
BSTAR          = .34346641E-3
MEAN_MOTION_DOT = .3426E-4
MEAN_MOTION_DDOT = 0

CCSDS_OMM_VERS = 2.0
CREATION_DATE  = 
ORIGINATOR     = 

OBJECT_NAME    = 2025-274D
OBJECT_ID      = 2025-274D
CENTER_NAME    = EARTH
REF_FRAME      = TEME
TIME_SYSTEM    = UTC
MEAN_ELEMENT_THEORY = SGP/SGP4

EPOCH          = 2025-12-24T05:14:58.697952
MEAN_MOTION    = 14.91957808
ECCENTRICITY   = .00117786
INCLINATION    = 97.7405
RA_OF_ASC_NODE = 285.2057
ARG_OF_PERICENTER = 210.7625
MEAN_ANOMALY   = 149.2905

EPHEMERIS_TYPE = 0
CLASSIFICATION_TYPE = U
NORAD_CAT_ID   = 66653
ELEMENT_SET_NO = 999
REV_AT_EPOCH   = 411
BSTAR          = .28961482E-3
MEAN_MOTION_DOT = .288E-4
MEAN_MOTION_DDOT = 0

CCSDS_OMM_VERS = 2.0
CREATION_DATE  = 
ORIGINATOR     = 

OBJECT_NAME    = JACK E
OBJECT_ID      = 2025-274E
CENTER_NAME    = EARTH
REF_FRAME      = TEME
TIME_SYSTEM    = UTC
MEAN_ELEMENT_THEORY = SGP/SGP4

EPOCH          = 2025-12-23T14:41:17.496384
MEAN_MOTION    = 14.92137123
ECCENTRICITY   = .00122814
INCLINATION    = 97.7407
RA_OF_ASC_NODE = 284.6177
ARG_OF_PERICENTER = 214.8879
MEAN_ANOMALY   = 145.1536

EPHEMERIS_TYPE = 0
CLASSIFICATION_TYPE = U
NORAD_CAT_ID   = 66654
ELEMENT_SET_NO = 999
REV_AT_EPOCH   = 402
BSTAR          = .30019774E-3
MEAN_MOTION_DOT = .3001E-4
MEAN_MOTION_DDOT = 0

CCSDS_OMM_VERS = 2.0
CREATION_DATE  = 
ORIGINATOR     = 

OBJECT_NAME    = 2025-274F
OBJECT_ID      = 2025-274F
CENTER_NAME    = EARTH
REF_FRAME      = TEME
TIME_SYSTEM    = UTC
MEAN_ELEMENT_THEORY = SGP/SGP4

EPOCH          = 2025-12-24T06:56:33.276192
MEAN_MOTION    = 14.91193300
ECCENTRICITY   = .00044335
INCLINATION    = 97.7344
RA_OF_ASC_NODE = 285.2601
ARG_OF_PERICENTER = 344.9357
MEAN_ANOMALY   = 15.1729

EPHEMERIS_TYPE = 0
CLASSIFICATION_TYPE = U
NORAD_CAT_ID   = 66655
ELEMENT_SET_NO = 999
REV_AT_EPOCH   = 412
BSTAR          = .19529297E-4
MEAN_MOTION_DOT = .139E-5
MEAN_MOTION_DDOT = 0

CCSDS_OMM_VERS = 2.0
CREATION_DATE  = 
ORIGINATOR     = 

OBJECT_NAME    = 2025-274G
OBJECT_ID      = 2025-274G
CENTER_NAME    = EARTH
REF_FRAME      = TEME
TIME_SYSTEM    = UTC
MEAN_ELEMENT_THEORY = SGP/SGP4

EPOCH          = 2025-12-24T06:41:56.198688
MEAN_MOTION    = 14.92338641
ECCENTRICITY   = .00128924
INCLINATION    = 97.7403
RA_OF_ASC_NODE = 285.2804
ARG_OF_PERICENTER = 214.2164
MEAN_ANOMALY   = 145.8225

EPHEMERIS_TYPE = 0
CLASSIFICATION_TYPE = U
NORAD_CAT_ID   = 66656
ELEMENT_SET_NO = 999
REV_AT_EPOCH   = 412
BSTAR          = .34581161E-3
MEAN_MOTION_DOT = .3484E-4
MEAN_MOTION_DDOT = 0

CCSDS_OMM_VERS = 2.0
CREATION_DATE  = 
ORIGINATOR     = 

OBJECT_NAME    = SPIRONE
OBJECT_ID      = 2025-274H
CENTER_NAME    = EARTH
REF_FRAME      = TEME
TIME_SYSTEM    = UTC
MEAN_ELEMENT_THEORY = SGP/SGP4

EPOCH          = 2025-12-24T06:37:10.218144
MEAN_MOTION    = 14.92516634
ECCENTRICITY   = .00109283
INCLINATION    = 97.7400
RA_OF_ASC_NODE = 285.2839
ARG_OF_PERICENTER = 231.9202
MEAN_ANOMALY   = 128.1032

EPHEMERIS_TYPE = 0
CLASSIFICATION_TYPE = U
NORAD_CAT_ID   = 66657
ELEMENT_SET_NO = 999
REV_AT_EPOCH   = 412
BSTAR          = .33060132E-3
MEAN_MOTION_DOT = .3342E-4
MEAN_MOTION_DDOT = 0

CCSDS_OMM_VERS = 2.0
CREATION_DATE  = 
ORIGINATOR     = 

OBJECT_NAME    = 2025-274J
OBJECT_ID      = 2025-274J
CENTER_NAME    = EARTH
REF_FRAME      = TEME
TIME_SYSTEM    = UTC
MEAN_ELEMENT_THEORY = SGP/SGP4

EPOCH          = 2025-12-24T06:32:34.484640
MEAN_MOTION    = 14.92692268
ECCENTRICITY   = .00114577
INCLINATION    = 97.7400
RA_OF_ASC_NODE = 285.2885
ARG_OF_PERICENTER = 235.3379
MEAN_ANOMALY   = 124.6761

EPHEMERIS_TYPE = 0
CLASSIFICATION_TYPE = U
NORAD_CAT_ID   = 66658
ELEMENT_SET_NO = 999
REV_AT_EPOCH   = 412
BSTAR          = .44355849E-3
MEAN_MOTION_DOT = .4525E-4
MEAN_MOTION_DDOT = 0

CCSDS_OMM_VERS = 2.0
CREATION_DATE  = 
ORIGINATOR     = 

OBJECT_NAME    = JACK K
OBJECT_ID      = 2025-274K
CENTER_NAME    = EARTH
REF_FRAME      = TEME
TIME_SYSTEM    = UTC
MEAN_ELEMENT_THEORY = SGP/SGP4

EPOCH          = 2025-12-24T06:27:39.283488
MEAN_MOTION    = 14.92869012
ECCENTRICITY   = .00121886
INCLINATION    = 97.7402
RA_OF_ASC_NODE = 285.2934
ARG_OF_PERICENTER = 237.2250
MEAN_ANOMALY   = 122.7795

EPHEMERIS_TYPE = 0
CLASSIFICATION_TYPE = U
NORAD_CAT_ID   = 66659
ELEMENT_SET_NO = 999
REV_AT_EPOCH   = 412
BSTAR          = .28972435E-3
MEAN_MOTION_DOT = .2949E-4
MEAN_MOTION_DDOT = 0

CCSDS_OMM_VERS = 2.0
CREATION_DATE  = 
ORIGINATOR     = 

OBJECT_NAME    = K-HERO
OBJECT_ID      = 2025-274L
CENTER_NAME    = EARTH
REF_FRAME      = TEME
TIME_SYSTEM    = UTC
MEAN_ELEMENT_THEORY = SGP/SGP4

EPOCH          = 2025-12-24T04:47:09.001536
MEAN_MOTION    = 14.93020053
ECCENTRICITY   = .00128098
INCLINATION    = 97.7405
RA_OF_ASC_NODE = 285.2325
ARG_OF_PERICENTER = 238.2830
MEAN_ANOMALY   = 121.7141

EPHEMERIS_TYPE = 0
CLASSIFICATION_TYPE = U
NORAD_CAT_ID   = 66660
ELEMENT_SET_NO = 999
REV_AT_EPOCH   = 411
BSTAR          = .29131488E-3
MEAN_MOTION_DOT = .2977E-4
MEAN_MOTION_DDOT = 0

CCSDS_OMM_VERS = 2.0
CREATION_DATE  = 
ORIGINATOR     = 

OBJECT_NAME    = SNUGLITE-III
OBJECT_ID      = 2025-274M
CENTER_NAME    = EARTH
REF_FRAME      = TEME
TIME_SYSTEM    = UTC
MEAN_ELEMENT_THEORY = SGP/SGP4

EPOCH          = 2025-12-24T04:43:20.930592
MEAN_MOTION    = 14.93152551
ECCENTRICITY   = .00134288
INCLINATION    = 97.7403
RA_OF_ASC_NODE = 285.2350
ARG_OF_PERICENTER = 239.7745
MEAN_ANOMALY   = 120.2145

EPHEMERIS_TYPE = 0
CLASSIFICATION_TYPE = U
NORAD_CAT_ID   = 66661
ELEMENT_SET_NO = 999
REV_AT_EPOCH   = 411
BSTAR          = .25211897E-3
MEAN_MOTION_DOT = .2578E-4
MEAN_MOTION_DDOT = 0

CCSDS_OMM_VERS = 2.0
CREATION_DATE  = 
ORIGINATOR     = 

OBJECT_NAME    = 2025-274N
OBJECT_ID      = 2025-274N
CENTER_NAME    = EARTH
REF_FRAME      = TEME
TIME_SYSTEM    = UTC
MEAN_ELEMENT_THEORY = SGP/SGP4

EPOCH          = 2025-12-24T06:18:20.453472
MEAN_MOTION    = 14.93208894
ECCENTRICITY   = .00138619
INCLINATION    = 97.7404
RA_OF_ASC_NODE = 285.3027
ARG_OF_PERICENTER = 239.2388
MEAN_ANOMALY   = 120.7467

EPHEMERIS_TYPE = 0
CLASSIFICATION_TYPE = U
NORAD_CAT_ID   = 66662
ELEMENT_SET_NO = 999
REV_AT_EPOCH   = 412
BSTAR          = .26734172E-3
MEAN_MOTION_DOT = .2741E-4
MEAN_MOTION_DDOT = 0

