2025-274B               
1 66651U 25274B   25358.28804489  .00004579  00000+0  45801-3 0  9995
2 66651  97.7402 285.2676 0011248 206.9897 153.0738 14.91878349  4126
2025-274C               
1 66652U 25274C   25357.61520229  .00003426  00000+0  34347-3 0  9992
2 66652  97.7406 284.6132 0010769 216.5181 143.5304 14.91960147  4021
2025-274D               
1 66653U 25274D   25358.21873493  .00002880  00000+0  28961-3 0  9992
2 66653  97.7405 285.2057 0011778 210.7625 149.2905 14.91957808  4114
JACK E                  
1 66654U 25274E   25357.61200806  .00003001  00000+0  30020-3 0  9993
2 66654  97.7407 284.6177 0012281 214.8879 145.1536 14.92137123  4025
2025-274F               
1 66655U 25274F   25358.28927403  .00000139  00000+0  19529-4 0  9998
2 66655  97.7344 285.2601 0004433 344.9357  15.1729 14.91193300  4120
2025-274G               
1 66656U 25274G   25358.27912267  .00003484  00000+0  34581-3 0  9990
2 66656  97.7403 285.2804 0012892 214.2164 145.8225 14.92338641  4127
SPIRONE                 
1 66657U 25274H   25358.27581271  .00003342  00000+0  33060-3 0  9992
2 66657  97.7400 285.2839 0010928 231.9202 128.1032 14.92516634  4120
2025-274J               
1 66658U 25274J   25358.27262135  .00004525  00000+0  44356-3 0  9992
2 66658  97.7400 285.2885 0011457 235.3379 124.6761 14.92692268  4121
JACK K                  
1 66659U 25274K   25358.26920467  .00002949  00000+0  28972-3 0  9995
2 66659  97.7402 285.2934 0012188 237.2250 122.7795 14.92869012  4129
K-HERO                  
1 66660U 25274L   25358.19940974  .00002977  00000+0  29131-3 0  9993
2 66660  97.7405 285.2325 0012809 238.2830 121.7141 14.93020053  4111
SNUGLITE-III            
1 66661U 25274M   25358.19677003  .00002578  00000+0  25212-3 0  9997
2 66661  97.7403 285.2350 0013428 239.7745 120.2145 14.93152551  4114
2025-274N               
1 66662U 25274N   25358.26273673  .00002741  00000+0  26734-3 0  9993
2 66662  97.7404 285.3027 0013861 239.2388 120.7467 14.93208894  4122
